start=new Date('2022-12-05T00:00:00.000Z').valueOf();
sats=[{"PERIOD":"95.438","ELEMENT_SET_NO":"999","OBJECT_ID":"2022-086A","NORAD_CAT_ID":"53242","DECAY_DATE":null,"TLE_LINE1":"1 53242U 22086A   22338.84058951 -.00000455  00000-0 -10464-4 0  9997","OBJECT_NAME":"STARLINK-4056","EPHEMERIS_TYPE":"0","INCLINATION":"53.2175","TIME_SYSTEM":"UTC","APOAPSIS":"541.054","EPOCH":"2022-12-04T20:10:26.933664","MEAN_MOTION":"15.08839304","MEAN_ANOMALY":"304.7572","REV_AT_EPOCH":"2153","GP_ID":"219556764","FILE":"3681494","ECCENTRICITY":"0.00018890","CLASSIFICATION_TYPE":"U","RCS_SIZE":"LARGE","OBJECT_TYPE":"PAYLOAD","LAUNCH_DATE":"2022-07-24","MEAN_MOTION_DDOT":"0.0000000000000","MEAN_ELEMENT_THEORY":"SGP4","SEMIMAJOR_AXIS":"6917.883","SITE":"AFETR","TLE_LINE2":"2 53242  53.2175 145.0629 0001889  55.3598 304.7572 15.08839304 21539","CENTER_NAME":"EARTH","MEAN_MOTION_DOT":"-0.00000455","REF_FRAME":"TEME","BSTAR":"-0.00001046400000","RA_OF_ASC_NODE":"145.0629","PERIAPSIS":"538.441","ARG_OF_PERICENTER":"55.3598","COUNTRY_CODE":"US"},{"REF_FRAME":"TEME","MEAN_MOTION_DOT":"0.00001795","CENTER_NAME":"EARTH","TLE_LINE2":"2 53243  53.2162 150.3337 0002349  52.4165 307.7040 15.08834969 21479","SITE":"AFETR","SEMIMAJOR_AXIS":"6917.896","COUNTRY_CODE":"US","ARG_OF_PERICENTER":"52.4165","PERIAPSIS":"538.136","RA_OF_ASC_NODE":"150.3337","BSTAR":"0.00013088000000","OBJECT_TYPE":"PAYLOAD","CLASSIFICATION_TYPE":"U","RCS_SIZE":"LARGE","ECCENTRICITY":"0.00023490","MEAN_ELEMENT_THEORY":"SGP4","MEAN_MOTION_DDOT":"0.0000000000000","LAUNCH_DATE":"2022-07-24","MEAN_MOTION":"15.08834969","APOAPSIS":"541.386","EPOCH":"2022-12-04T18:35:41.579520","INCLINATION":"53.2162","TIME_SYSTEM":"UTC","FILE":"3681494","GP_ID":"219557517","REV_AT_EPOCH":"2147","MEAN_ANOMALY":"307.7040","NORAD_CAT_ID":"53243","OBJECT_ID":"2022-086B","ELEMENT_SET_NO":"999","PERIOD":"95.438","EPHEMERIS_TYPE":"0","OBJECT_NAME":"STARLINK-4047","TLE_LINE1":"1 53243U 22086B   22338.77478680  .00001795  00000-0  13088-3 0  9995","DECAY_DATE":null},{"FILE":"3681494","GP_ID":"219557758","REV_AT_EPOCH":"2144","MEAN_ANOMALY":"303.7177","MEAN_MOTION":"15.08845020","EPOCH":"2022-12-04T16:44:23.153280","APOAPSIS":"541.711","TIME_SYSTEM":"UTC","INCLINATION":"53.2147","EPHEMERIS_TYPE":"0","OBJECT_NAME":"STARLINK-4125","TLE_LINE1":"1 53244U 22086C   22338.69749020  .00000071  00000-0  22597-4 0  9998","DECAY_DATE":null,"NORAD_CAT_ID":"53244","OBJECT_ID":"2022-086C","ELEMENT_SET_NO":"999","PERIOD":"95.437","COUNTRY_CODE":"US","ARG_OF_PERICENTER":"56.4088","PERIAPSIS":"537.749","RA_OF_ASC_NODE":"150.6896","BSTAR":"0.00002259700000","REF_FRAME":"TEME","MEAN_MOTION_DOT":"0.00000071","CENTER_NAME":"EARTH","SITE":"AFETR","TLE_LINE2":"2 53244  53.2147 150.6896 0002864  56.4088 303.7177 15.08845020 21440","SEMIMAJOR_AXIS":"6917.865","MEAN_ELEMENT_THEORY":"SGP4","MEAN_MOTION_DDOT":"0.0000000000000","LAUNCH_DATE":"2022-07-24","OBJECT_TYPE":"PAYLOAD","CLASSIFICATION_TYPE":"U","RCS_SIZE":"LARGE","ECCENTRICITY":"0.00028640"},{"COUNTRY_CODE":"US","PERIAPSIS":"538.095","ARG_OF_PERICENTER":"54.7594","RA_OF_ASC_NODE":"150.0563","BSTAR":"0.00011700000000","REF_FRAME":"TEME","CENTER_NAME":"EARTH","MEAN_MOTION_DOT":"0.00001575","SEMIMAJOR_AXIS":"6917.849","SITE":"AFETR","TLE_LINE2":"2 53245  53.2159 150.0563 0002340  54.7594 305.3617 15.08850335 21487","MEAN_MOTION_DDOT":"0.0000000000000","MEAN_ELEMENT_THEORY":"SGP4","LAUNCH_DATE":"2022-07-24","OBJECT_TYPE":"PAYLOAD","ECCENTRICITY":"0.00023400","CLASSIFICATION_TYPE":"U","RCS_SIZE":"LARGE","FILE":"3681494","GP_ID":"219556015","MEAN_ANOMALY":"305.3617","REV_AT_EPOCH":"2148","MEAN_MOTION":"15.08850335","INCLINATION":"53.2159","TIME_SYSTEM":"UTC","APOAPSIS":"541.333","EPOCH":"2022-12-04T20:05:44.939616","EPHEMERIS_TYPE":"0","OBJECT_NAME":"STARLINK-4124","DECAY_DATE":null,"TLE_LINE1":"1 53245U 22086D   22338.83732569  .00001575  00000-0  11700-3 0  9998","NORAD_CAT_ID":"53245","OBJECT_ID":"2022-086D","PERIOD":"95.437","ELEMENT_SET_NO":"999"},{"OBJECT_TYPE":"PAYLOAD","RCS_SIZE":"LARGE","CLASSIFICATION_TYPE":"U","ECCENTRICITY":"0.00030380","MEAN_MOTION_DDOT":"0.0000000000000","MEAN_ELEMENT_THEORY":"SGP4","LAUNCH_DATE":"2022-07-24","REF_FRAME":"TEME","MEAN_MOTION_DOT":"-0.00000109","CENTER_NAME":"EARTH","SITE":"AFETR","TLE_LINE2":"2 53246  53.2163 150.3749 0003038  51.4800 308.6464 15.08839117 20346","SEMIMAJOR_AXIS":"6917.883","COUNTRY_CODE":"US","ARG_OF_PERICENTER":"51.4800","PERIAPSIS":"537.646","RA_OF_ASC_NODE":"150.3749","BSTAR":"0.00001130500000","NORAD_CAT_ID":"53246","OBJECT_ID":"2022-086E","ELEMENT_SET_NO":"999","PERIOD":"95.438","EPHEMERIS_TYPE":"0","OBJECT_NAME":"STARLINK-4131","TLE_LINE1":"1 53246U 22086E   22338.76741037 -.00000109  00000-0  11305-4 0  9996","DECAY_DATE":null,"MEAN_MOTION":"15.08839117","APOAPSIS":"541.850","EPOCH":"2022-12-04T18:25:04.255968","INCLINATION":"53.2163","TIME_SYSTEM":"UTC","FILE":"3681494","GP_ID":"219556266","REV_AT_EPOCH":"2034","MEAN_ANOMALY":"308.6464"},{"EPHEMERIS_TYPE":"0","DECAY_DATE":null,"TLE_LINE1":"1 53247U 22086F   22338.83690579  .00000470  00000-0  47642-4 0  9992","OBJECT_NAME":"STARLINK-4061","NORAD_CAT_ID":"53247","PERIOD":"95.438","ELEMENT_SET_NO":"999","OBJECT_ID":"2022-086F","GP_ID":"219557018","FILE":"3681494","MEAN_ANOMALY":"305.3543","REV_AT_EPOCH":"2153","MEAN_MOTION":"15.08836994","TIME_SYSTEM":"UTC","INCLINATION":"53.2177","EPOCH":"2022-12-04T20:05:08.660256","APOAPSIS":"541.143","MEAN_MOTION_DDOT":"0.0000000000000","MEAN_ELEMENT_THEORY":"SGP4","LAUNCH_DATE":"2022-07-24","ECCENTRICITY":"0.00020070","CLASSIFICATION_TYPE":"U","RCS_SIZE":"LARGE","OBJECT_TYPE":"PAYLOAD","PERIAPSIS":"538.366","ARG_OF_PERICENTER":"54.7637","COUNTRY_CODE":"US","BSTAR":"0.00004764200000","RA_OF_ASC_NODE":"145.0806","CENTER_NAME":"EARTH","MEAN_MOTION_DOT":"0.00000470","REF_FRAME":"TEME","SEMIMAJOR_AXIS":"6917.890","TLE_LINE2":"2 53247  53.2177 145.0806 0002007  54.7637 305.3543 15.08836994 21530","SITE":"AFETR"},{"PERIOD":"95.437","ELEMENT_SET_NO":"999","OBJECT_ID":"2022-086G","NORAD_CAT_ID":"53248","DECAY_DATE":null,"TLE_LINE1":"1 53248U 22086G   22338.76697920  .00000595  00000-0  55452-4 0  9998","OBJECT_NAME":"STARLINK-4135","EPHEMERIS_TYPE":"0","INCLINATION":"53.2160","TIME_SYSTEM":"UTC","APOAPSIS":"541.110","EPOCH":"2022-12-04T18:24:27.002880","MEAN_MOTION":"15.08848374","MEAN_ANOMALY":"300.0321","REV_AT_EPOCH":"2152","GP_ID":"219557259","FILE":"3681494","ECCENTRICITY":"0.00020100","CLASSIFICATION_TYPE":"U","RCS_SIZE":"LARGE","OBJECT_TYPE":"PAYLOAD","LAUNCH_DATE":"2022-07-24","MEAN_MOTION_DDOT":"0.0000000000000","MEAN_ELEMENT_THEORY":"SGP4","SEMIMAJOR_AXIS":"6917.855","SITE":"AFETR","TLE_LINE2":"2 53248  53.2160 145.3886 0002010  60.0871 300.0321 15.08848374 21528","CENTER_NAME":"EARTH","MEAN_MOTION_DOT":"0.00000595","REF_FRAME":"TEME","BSTAR":"0.00005545200000","RA_OF_ASC_NODE":"145.3886","PERIAPSIS":"538.329","ARG_OF_PERICENTER":"60.0871","COUNTRY_CODE":"US"},{"MEAN_MOTION_DDOT":"0.0000000000000","MEAN_ELEMENT_THEORY":"SGP4","LAUNCH_DATE":"2022-07-24","ECCENTRICITY":"0.00028960","RCS_SIZE":"LARGE","CLASSIFICATION_TYPE":"U","OBJECT_TYPE":"PAYLOAD","PERIAPSIS":"537.725","ARG_OF_PERICENTER":"57.5082","COUNTRY_CODE":"US","BSTAR":"-0.00005400000000","RA_OF_ASC_NODE":"140.6384","CENTER_NAME":"EARTH","MEAN_MOTION_DOT":"-0.00001148","REF_FRAME":"TEME","SEMIMAJOR_AXIS":"6917.864","SITE":"AFETR","TLE_LINE2":"2 53249  53.2178 140.6384 0002896  57.5082 302.6190 15.08845475 21280","EPHEMERIS_TYPE":"0","DECAY_DATE":null,"TLE_LINE1":"1 53249U 22086H   22338.71313421 -.00001148  00000-0 -54000-4 0  9990","OBJECT_NAME":"STARLINK-4128","NORAD_CAT_ID":"53249","PERIOD":"95.437","ELEMENT_SET_NO":"999","OBJECT_ID":"2022-086H","GP_ID":"219556514","FILE":"3681494","MEAN_ANOMALY":"302.6190","REV_AT_EPOCH":"2128","MEAN_MOTION":"15.08845475","TIME_SYSTEM":"UTC","INCLINATION":"53.2178","EPOCH":"2022-12-04T17:06:54.795744","APOAPSIS":"541.732"},{"REF_FRAME":"TEME","CENTER_NAME":"EARTH","MEAN_MOTION_DOT":"0.00000453","SEMIMAJOR_AXIS":"6917.871","TLE_LINE2":"2 53250  53.2179 140.0261 0002719  54.9040 305.2207 15.08843080 21301","SITE":"AFETR","COUNTRY_CODE":"US","PERIAPSIS":"537.855","ARG_OF_PERICENTER":"54.9040","RA_OF_ASC_NODE":"140.0261","BSTAR":"0.00004657700000","OBJECT_TYPE":"PAYLOAD","ECCENTRICITY":"0.00027190","RCS_SIZE":"LARGE","CLASSIFICATION_TYPE":"U","MEAN_MOTION_DDOT":"0.0000000000000","MEAN_ELEMENT_THEORY":"SGP4","LAUNCH_DATE":"2022-07-24","MEAN_MOTION":"15.08843080","TIME_SYSTEM":"UTC","INCLINATION":"53.2179","APOAPSIS":"541.617","EPOCH":"2022-12-04T20:22:58.814976","FILE":"3681494","GP_ID":"219556765","MEAN_ANOMALY":"305.2207","REV_AT_EPOCH":"2130","NORAD_CAT_ID":"53250","OBJECT_ID":"2022-086J","PERIOD":"95.437","ELEMENT_SET_NO":"999","EPHEMERIS_TYPE":"0","OBJECT_NAME":"STARLINK-4059","DECAY_DATE":null,"TLE_LINE1":"1 53250U 22086J   22338.84929184  .00000453  00000-0  46577-4 0  9991"},{"MEAN_MOTION_DOT":"0.00001240","CENTER_NAME":"EARTH","REF_FRAME":"TEME","TLE_LINE2":"2 53251  53.2159 140.0673 0002235  45.3698 314.7476 15.08850858 21284","SITE":"AFETR","SEMIMAJOR_AXIS":"6917.847","ARG_OF_PERICENTER":"45.3698","PERIAPSIS":"538.166","COUNTRY_CODE":"US","BSTAR":"0.00009600500000","RA_OF_ASC_NODE":"140.0673","RCS_SIZE":"LARGE","CLASSIFICATION_TYPE":"U","ECCENTRICITY":"0.00022350","OBJECT_TYPE":"PAYLOAD","MEAN_ELEMENT_THEORY":"SGP4","MEAN_MOTION_DDOT":"0.0000000000000","LAUNCH_DATE":"2022-07-24","MEAN_MOTION":"15.08850858","APOAPSIS":"541.258","EPOCH":"2022-12-04T20:07:04.395648","TIME_SYSTEM":"UTC","INCLINATION":"53.2159","GP_ID":"219557518","FILE":"3681494","REV_AT_EPOCH":"2128","MEAN_ANOMALY":"314.7476","NORAD_CAT_ID":"53251","ELEMENT_SET_NO":"999","PERIOD":"95.437","OBJECT_ID":"2022-086K","EPHEMERIS_TYPE":"0","TLE_LINE1":"1 53251U 22086K   22338.83824532  .00001240  00000-0  96005-4 0  9998","DECAY_DATE":null,"OBJECT_NAME":"STARLINK-4129"}];
